CCSDS_OMM_VERS = 2.0
CREATION_DATE  = 
ORIGINATOR     = 

OBJECT_NAME    = AQUA
OBJECT_ID      = 2002-022A
CENTER_NAME    = EARTH
REF_FRAME      = TEME
TIME_SYSTEM    = UTC
MEAN_ELEMENT_THEORY = SGP/SGP4

EPOCH          = 2026-03-16T20:45:18.665568
MEAN_MOTION    = 14.61994526
ECCENTRICITY   = .0000666
INCLINATION    = 98.4186
RA_OF_ASC_NODE = 43.3611
ARG_OF_PERICENTER = 106.5065
MEAN_ANOMALY   = 282.9875

EPHEMERIS_TYPE = 0
CLASSIFICATION_TYPE = U
NORAD_CAT_ID   = 27424
ELEMENT_SET_NO = 999
REV_AT_EPOCH   = 26978
BSTAR          = .20375E-3
MEAN_MOTION_DOT = .972E-5
MEAN_MOTION_DDOT = 0

CCSDS_OMM_VERS = 2.0
CREATION_DATE  = 
ORIGINATOR     = 

OBJECT_NAME    = CZ-4B R/B
OBJECT_ID      = 2002-024C
CENTER_NAME    = EARTH
REF_FRAME      = TEME
TIME_SYSTEM    = UTC
MEAN_ELEMENT_THEORY = SGP/SGP4

EPOCH          = 2026-03-16T03:44:50.429472
MEAN_MOTION    = 14.14548838
ECCENTRICITY   = .00501695
INCLINATION    = 98.8825
RA_OF_ASC_NODE = 128.5298
ARG_OF_PERICENTER = 5.9184
MEAN_ANOMALY   = 57.3216

EPHEMERIS_TYPE = 0
CLASSIFICATION_TYPE = U
NORAD_CAT_ID   = 27432
ELEMENT_SET_NO = 999
REV_AT_EPOCH   = 23015
BSTAR          = .43466768E-4
MEAN_MOTION_DOT = .4E-6
MEAN_MOTION_DDOT = 0

CCSDS_OMM_VERS = 2.0
CREATION_DATE  = 
ORIGINATOR     = 

OBJECT_NAME    = MIDORI II (ADEOS-II)
OBJECT_ID      = 2002-056A
CENTER_NAME    = EARTH
REF_FRAME      = TEME
TIME_SYSTEM    = UTC
MEAN_ELEMENT_THEORY = SGP/SGP4

EPOCH          = 2026-03-16T20:58:48.313920
MEAN_MOTION    = 14.29290773
ECCENTRICITY   = .0001307
INCLINATION    = 98.7779
RA_OF_ASC_NODE = 34.4019
ARG_OF_PERICENTER = 34.2532
MEAN_ANOMALY   = 325.8734

EPHEMERIS_TYPE = 0
CLASSIFICATION_TYPE = U
NORAD_CAT_ID   = 27597
ELEMENT_SET_NO = 999
REV_AT_EPOCH   = 21132
BSTAR          = .12509E-3
MEAN_MOTION_DOT = .273E-5
MEAN_MOTION_DDOT = 0

CCSDS_OMM_VERS = 2.0
CREATION_DATE  = 
ORIGINATOR     = 

OBJECT_NAME    = H-2A R/B
OBJECT_ID      = 2002-056E
CENTER_NAME    = EARTH
REF_FRAME      = TEME
TIME_SYSTEM    = UTC
MEAN_ELEMENT_THEORY = SGP/SGP4

EPOCH          = 2026-03-16T21:18:30.343680
MEAN_MOTION    = 14.33765485
ECCENTRICITY   = .0070909
INCLINATION    = 98.3214
RA_OF_ASC_NODE = 35.9799
ARG_OF_PERICENTER = 139.3884
MEAN_ANOMALY   = 242.9440

EPHEMERIS_TYPE = 0
CLASSIFICATION_TYPE = U
NORAD_CAT_ID   = 27601
ELEMENT_SET_NO = 999
REV_AT_EPOCH   = 21514
BSTAR          = .93554E-4
MEAN_MOTION_DOT = .226E-5
MEAN_MOTION_DDOT = 0

CCSDS_OMM_VERS = 2.0
CREATION_DATE  = 
ORIGINATOR     = 

OBJECT_NAME    = CZ-4B R/B
OBJECT_ID      = 2003-049C
CENTER_NAME    = EARTH
REF_FRAME      = TEME
TIME_SYSTEM    = UTC
MEAN_ELEMENT_THEORY = SGP/SGP4

EPOCH          = 2026-03-16T21:06:03.182400
MEAN_MOTION    = 14.55027043
ECCENTRICITY   = .0047568
INCLINATION    = 98.6883
RA_OF_ASC_NODE = 71.0664
ARG_OF_PERICENTER = 208.5739
MEAN_ANOMALY   = 151.2849

EPHEMERIS_TYPE = 0
CLASSIFICATION_TYPE = U
NORAD_CAT_ID   = 28059
ELEMENT_SET_NO = 999
REV_AT_EPOCH   = 18764
BSTAR          = .8566E-4
MEAN_MOTION_DOT = .323E-5
MEAN_MOTION_DDOT = 0

CCSDS_OMM_VERS = 2.0
CREATION_DATE  = 
ORIGINATOR     = 

OBJECT_NAME    = CZ-2C R/B
OBJECT_ID      = 2004-012C
CENTER_NAME    = EARTH
REF_FRAME      = TEME
TIME_SYSTEM    = UTC
MEAN_ELEMENT_THEORY = SGP/SGP4

EPOCH          = 2026-03-16T15:25:33.873024
MEAN_MOTION    = 15.65382493
ECCENTRICITY   = .0012936
INCLINATION    = 97.7217
RA_OF_ASC_NODE = 141.5982
ARG_OF_PERICENTER = 281.2149
MEAN_ANOMALY   = 78.7656

EPHEMERIS_TYPE = 0
CLASSIFICATION_TYPE = U
NORAD_CAT_ID   = 28222
ELEMENT_SET_NO = 999
REV_AT_EPOCH   = 20536
BSTAR          = .5169E-3
MEAN_MOTION_DOT = .51783E-3
MEAN_MOTION_DDOT = 0

CCSDS_OMM_VERS = 2.0
CREATION_DATE  = 
ORIGINATOR     = 

OBJECT_NAME    = SL-16 R/B
OBJECT_ID      = 2004-021B
CENTER_NAME    = EARTH
REF_FRAME      = TEME
TIME_SYSTEM    = UTC
MEAN_ELEMENT_THEORY = SGP/SGP4

EPOCH          = 2026-03-16T19:28:00.845760
MEAN_MOTION    = 14.14594945
ECCENTRICITY   = .0004431
INCLINATION    = 70.9997
RA_OF_ASC_NODE = 217.5469
ARG_OF_PERICENTER = 0.0100
MEAN_ANOMALY   = 0.1022

EPHEMERIS_TYPE = 0
CLASSIFICATION_TYPE = U
NORAD_CAT_ID   = 28353
ELEMENT_SET_NO = 999
REV_AT_EPOCH   = 12384
BSTAR          = -.11864E-3
MEAN_MOTION_DOT = -.276E-5
MEAN_MOTION_DDOT = 0

CCSDS_OMM_VERS = 2.0
CREATION_DATE  = 
ORIGINATOR     = 

OBJECT_NAME    = CZ-4B R/B
OBJECT_ID      = 2004-035C
CENTER_NAME    = EARTH
REF_FRAME      = TEME
TIME_SYSTEM    = UTC
MEAN_ELEMENT_THEORY = SGP/SGP4

EPOCH          = 2026-03-16T20:17:48.932736
MEAN_MOTION    = 15.29195345
ECCENTRICITY   = .0030288
INCLINATION    = 97.3490
RA_OF_ASC_NODE = 110.0028
ARG_OF_PERICENTER = 305.0259
MEAN_ANOMALY   = 54.8140

EPHEMERIS_TYPE = 0
CLASSIFICATION_TYPE = U
NORAD_CAT_ID   = 28415
ELEMENT_SET_NO = 999
REV_AT_EPOCH   = 18100
BSTAR          = .2514E-3
MEAN_MOTION_DOT = .7143E-4
MEAN_MOTION_DDOT = 0

CCSDS_OMM_VERS = 2.0
CREATION_DATE  = 
ORIGINATOR     = 

OBJECT_NAME    = CZ-2C R/B
OBJECT_ID      = 2004-046B
CENTER_NAME    = EARTH
REF_FRAME      = TEME
TIME_SYSTEM    = UTC
MEAN_ELEMENT_THEORY = SGP/SGP4

EPOCH          = 2026-03-16T18:40:12.007200
MEAN_MOTION    = 14.26994629
ECCENTRICITY   = .0140277
INCLINATION    = 98.1981
RA_OF_ASC_NODE = 350.3205
ARG_OF_PERICENTER = 133.5713
MEAN_ANOMALY   = 227.7216

EPHEMERIS_TYPE = 0
CLASSIFICATION_TYPE = U
NORAD_CAT_ID   = 28480
ELEMENT_SET_NO = 999
REV_AT_EPOCH   = 10951
BSTAR          = .5932E-4
MEAN_MOTION_DOT = .12E-5
MEAN_MOTION_DDOT = 0

CCSDS_OMM_VERS = 2.0
CREATION_DATE  = 
ORIGINATOR     = 

OBJECT_NAME    = ARIANE 5 R/B
OBJECT_ID      = 2004-049H
CENTER_NAME    = EARTH
REF_FRAME      = TEME
TIME_SYSTEM    = UTC
MEAN_ELEMENT_THEORY = SGP/SGP4

EPOCH          = 2026-03-16T16:57:03.542400
MEAN_MOTION    = 14.85278883
ECCENTRICITY   = .0083447
INCLINATION    = 98.2638
RA_OF_ASC_NODE = 244.4264
ARG_OF_PERICENTER = 329.0698
MEAN_ANOMALY   = 30.5615

EPHEMERIS_TYPE = 0
CLASSIFICATION_TYPE = U
NORAD_CAT_ID   = 28499
ELEMENT_SET_NO = 999
REV_AT_EPOCH   = 14683
BSTAR          = .86674E-4
MEAN_MOTION_DOT = .726E-5
MEAN_MOTION_DDOT = 0

CCSDS_OMM_VERS = 2.0
CREATION_DATE  = 
ORIGINATOR     = 

OBJECT_NAME    = CZ-2D R/B
OBJECT_ID      = 2005-024B
CENTER_NAME    = EARTH
REF_FRAME      = TEME
TIME_SYSTEM    = UTC
MEAN_ELEMENT_THEORY = SGP/SGP4

EPOCH          = 2026-03-16T18:18:52.951968
MEAN_MOTION    = 15.60813874
ECCENTRICITY   = .0004622
INCLINATION    = 97.3589
RA_OF_ASC_NODE = 91.1719
ARG_OF_PERICENTER = 27.9041
MEAN_ANOMALY   = 332.2463

EPHEMERIS_TYPE = 0
CLASSIFICATION_TYPE = U
NORAD_CAT_ID   = 28738
ELEMENT_SET_NO = 999
REV_AT_EPOCH   = 14088
BSTAR          = .45902E-3
MEAN_MOTION_DOT = .38266E-3
MEAN_MOTION_DDOT = 0

CCSDS_OMM_VERS = 2.0
CREATION_DATE  = 
ORIGINATOR     = 

OBJECT_NAME    = ALOS (DAICHI)
OBJECT_ID      = 2006-002A
CENTER_NAME    = EARTH
REF_FRAME      = TEME
TIME_SYSTEM    = UTC
MEAN_ELEMENT_THEORY = SGP/SGP4

EPOCH          = 2026-03-16T20:31:26.534208
MEAN_MOTION    = 14.69833506
ECCENTRICITY   = .0000728
INCLINATION    = 98.1230
RA_OF_ASC_NODE = 31.7752
ARG_OF_PERICENTER = 72.2963
MEAN_ANOMALY   = 287.8322

EPHEMERIS_TYPE = 0
CLASSIFICATION_TYPE = U
NORAD_CAT_ID   = 28931
ELEMENT_SET_NO = 999
REV_AT_EPOCH   = 7453
BSTAR          = .22002E-3
MEAN_MOTION_DOT = .1265E-4
MEAN_MOTION_DDOT = 0

