AQUA                    
1 27424U 02022A   26075.86479937  .00000972  00000+0  20375-3 0  9995
2 27424  98.4186  43.3611 0000666 106.5065 282.9875 14.61994526269786
CZ-4B R/B               
1 27432U 02024C   26075.15613923  .00000040  00000+0  43467-4 0  9997
2 27432  98.8825 128.5298 0050169   5.9184  57.3216 14.14548838230154
MIDORI II (ADEOS-II)    
1 27597U 02056A   26075.87417030  .00000273  00000+0  12509-3 0  9994
2 27597  98.7779  34.4019 0001307  34.2532 325.8734 14.29290773211325
H-2A R/B                
1 27601U 02056E   26075.88785120  .00000226  00000+0  93554-4 0  9997
2 27601  98.3214  35.9799 0070909 139.3884 242.9440 14.33765485215142
CZ-4B R/B               
1 28059U 03049C   26075.87920350  .00000323  00000+0  85660-4 0  9990
2 28059  98.6883  71.0664 0047568 208.5739 151.2849 14.55027043187643
CZ-2C R/B               
1 28222U 04012C   26075.64275316  .00051783  00000+0  51690-3 0  9994
2 28222  97.7217 141.5982 0012936 281.2149  78.7656 15.65382493205360
SL-16 R/B               
1 28353U 04021B   26075.81112090 -.00000276  00000+0 -11864-3 0  9999
2 28353  70.9997 217.5469 0004431   0.0100   0.1022 14.14594945123840
CZ-4B R/B               
1 28415U 04035C   26075.84570524  .00007143  00000+0  25140-3 0  9996
2 28415  97.3490 110.0028 0030288 305.0259  54.8140 15.29195345181007
CZ-2C R/B               
1 28480U 04046B   26075.77791675  .00000120  00000+0  59320-4 0  9990
2 28480  98.1981 350.3205 0140277 133.5713 227.7216 14.26994629109517
ARIANE 5 R/B            
1 28499U 04049H   26075.70629100  .00000726  00000+0  86674-4 0  9993
2 28499  98.2638 244.4264 0083447 329.0698  30.5615 14.85278883146835
CZ-2D R/B               
1 28738U 05024B   26075.76311287  .00038266  00000+0  45902-3 0  9991
2 28738  97.3589  91.1719 0004622  27.9041 332.2463 15.60813874140883
ALOS (DAICHI)           
1 28931U 06002A   26075.85516822  .00001265  00000+0  22002-3 0  9990
2 28931  98.1230  31.7752 0000728  72.2963 287.8322 14.69833506 74535
